{"fetched_at":"2026-07-12T17:32:49.193Z","source":"https://celestrak.org/NORAD/elements/gp.php?NAME=ICEYE&FORMAT=JSON","constellation":"iceye","records":[{"OBJECT_NAME":"ICEYE-X53","OBJECT_ID":"2025-135BJ","EPOCH":"2026-07-12T13:24:05.176800","CLASSIFICATION_TYPE":"U","MEAN_MOTION":15.00882215,"ECCENTRICITY":0.0001828,"INCLINATION":97.7364,"RA_OF_ASC_NODE":310.2297,"ARG_OF_PERICENTER":168.7521,"MEAN_ANOMALY":191.3744,"EPHEMERIS_TYPE":0,"NORAD_CAT_ID":64584,"ELEMENT_SET_NO":999,"REV_AT_EPOCH":5788,"BSTAR":0.000011519,"MEAN_MOTION_DOT":8.7e-7,"MEAN_MOTION_DDOT":0},{"OBJECT_NAME":"ICEYE-X65","OBJECT_ID":"2025-248H","EPOCH":"2026-07-12T12:33:30.401856","CLASSIFICATION_TYPE":"U","MEAN_MOTION":15.07918224,"ECCENTRICITY":0.0005288,"INCLINATION":45.4057,"RA_OF_ASC_NODE":0.9505,"ARG_OF_PERICENTER":185.0271,"MEAN_ANOMALY":175.0558,"EPHEMERIS_TYPE":0,"NORAD_CAT_ID":66300,"ELEMENT_SET_NO":999,"REV_AT_EPOCH":3934,"BSTAR":0.0001309,"MEAN_MOTION_DOT":0.00001792,"MEAN_MOTION_DDOT":0},{"OBJECT_NAME":"ICEYE-X66","OBJECT_ID":"2025-248J","EPOCH":"2026-07-12T12:33:22.574880","CLASSIFICATION_TYPE":"U","MEAN_MOTION":15.09166148,"ECCENTRICITY":0.0004886,"INCLINATION":45.4024,"RA_OF_ASC_NODE":0.06,"ARG_OF_PERICENTER":181.1649,"MEAN_ANOMALY":178.9223,"EPHEMERIS_TYPE":0,"NORAD_CAT_ID":66301,"ELEMENT_SET_NO":999,"REV_AT_EPOCH":3933,"BSTAR":0.00013591,"MEAN_MOTION_DOT":0.00001941,"MEAN_MOTION_DDOT":0},{"OBJECT_NAME":"ICEYE-X67","OBJECT_ID":"2025-248K","EPOCH":"2026-07-12T11:33:33.333120","CLASSIFICATION_TYPE":"U","MEAN_MOTION":15.09148785,"ECCENTRICITY":0.0006449,"INCLINATION":45.4063,"RA_OF_ASC_NODE":359.8563,"ARG_OF_PERICENTER":180.6538,"MEAN_ANOMALY":179.4337,"EPHEMERIS_TYPE":0,"NORAD_CAT_ID":66302,"ELEMENT_SET_NO":999,"REV_AT_EPOCH":3934,"BSTAR":0.00013157,"MEAN_MOTION_DOT":0.0000187,"MEAN_MOTION_DDOT":0},{"OBJECT_NAME":"ICEYE-X58","OBJECT_ID":"2025-276CP","EPOCH":"2026-07-11T17:14:21.491520","CLASSIFICATION_TYPE":"U","MEAN_MOTION":15.17296564,"ECCENTRICITY":0.00019347,"INCLINATION":97.4198,"RA_OF_ASC_NODE":265.6682,"ARG_OF_PERICENTER":232.1195,"MEAN_ANOMALY":127.9863,"EPHEMERIS_TYPE":0,"NORAD_CAT_ID":66751,"ELEMENT_SET_NO":999,"REV_AT_EPOCH":3413,"BSTAR":0.000077252469,"MEAN_MOTION_DOT":0.00001473,"MEAN_MOTION_DDOT":0},{"OBJECT_NAME":"ICEYE-X59","OBJECT_ID":"2025-276CQ","EPOCH":"2026-07-11T17:53:17.956608","CLASSIFICATION_TYPE":"U","MEAN_MOTION":15.00733485,"ECCENTRICITY":0.0000713,"INCLINATION":97.4383,"RA_OF_ASC_NODE":262.9933,"ARG_OF_PERICENTER":139.5292,"MEAN_ANOMALY":220.5986,"EPHEMERIS_TYPE":0,"NORAD_CAT_ID":66752,"ELEMENT_SET_NO":999,"REV_AT_EPOCH":3395,"BSTAR":0.00023199924,"MEAN_MOTION_DOT":0.00002884,"MEAN_MOTION_DDOT":0},{"OBJECT_NAME":"ICEYE-X60","OBJECT_ID":"2025-276CR","EPOCH":"2026-07-11T18:08:46.785984","CLASSIFICATION_TYPE":"U","MEAN_MOTION":15.11317713,"ECCENTRICITY":0.00008759,"INCLINATION":97.4167,"RA_OF_ASC_NODE":264.6966,"ARG_OF_PERICENTER":341.2583,"MEAN_ANOMALY":18.8615,"EPHEMERIS_TYPE":0,"NORAD_CAT_ID":66753,"ELEMENT_SET_NO":999,"REV_AT_EPOCH":3407,"BSTAR":0.00019977951,"MEAN_MOTION_DOT":0.00003303,"MEAN_MOTION_DDOT":0},{"OBJECT_NAME":"ICEYE-X61","OBJECT_ID":"2025-276CS","EPOCH":"2026-07-12T06:23:54.246048","CLASSIFICATION_TYPE":"U","MEAN_MOTION":15.18598916,"ECCENTRICITY":0.0001866,"INCLINATION":97.4197,"RA_OF_ASC_NODE":266.2891,"ARG_OF_PERICENTER":228.5716,"MEAN_ANOMALY":131.5358,"EPHEMERIS_TYPE":0,"NORAD_CAT_ID":66754,"ELEMENT_SET_NO":999,"REV_AT_EPOCH":3422,"BSTAR":0.000089505,"MEAN_MOTION_DOT":0.00001784,"MEAN_MOTION_DDOT":0},{"OBJECT_NAME":"ICEYE-X62","OBJECT_ID":"2025-276CT","EPOCH":"2026-07-12T02:39:54.336384","CLASSIFICATION_TYPE":"U","MEAN_MOTION":15.10124549,"ECCENTRICITY":0.00007015,"INCLINATION":97.4193,"RA_OF_ASC_NODE":264.5387,"ARG_OF_PERICENTER":284.7634,"MEAN_ANOMALY":75.3518,"EPHEMERIS_TYPE":0,"NORAD_CAT_ID":66755,"ELEMENT_SET_NO":999,"REV_AT_EPOCH":3409,"BSTAR":0.000063634835,"MEAN_MOTION_DOT":0.00000976,"MEAN_MOTION_DDOT":0},{"OBJECT_NAME":"ICEYE-X63","OBJECT_ID":"2026-004K","EPOCH":"2026-07-12T11:52:57.649152","CLASSIFICATION_TYPE":"U","MEAN_MOTION":14.88345873,"ECCENTRICITY":0.0005547,"INCLINATION":97.8013,"RA_OF_ASC_NODE":191.7399,"ARG_OF_PERICENTER":58.2689,"MEAN_ANOMALY":301.9068,"EPHEMERIS_TYPE":0,"NORAD_CAT_ID":67372,"ELEMENT_SET_NO":999,"REV_AT_EPOCH":2706,"BSTAR":0.000059556,"MEAN_MOTION_DOT":0.00000497,"MEAN_MOTION_DDOT":0},{"OBJECT_NAME":"ICEYE-X64","OBJECT_ID":"2026-004L","EPOCH":"2026-07-12T11:25:19.407648","CLASSIFICATION_TYPE":"U","MEAN_MOTION":14.87983247,"ECCENTRICITY":0.0007376,"INCLINATION":97.8026,"RA_OF_ASC_NODE":191.6413,"ARG_OF_PERICENTER":61.372,"MEAN_ANOMALY":298.8238,"EPHEMERIS_TYPE":0,"NORAD_CAT_ID":67373,"ELEMENT_SET_NO":999,"REV_AT_EPOCH":2705,"BSTAR":0.000080804,"MEAN_MOTION_DOT":0.00000687,"MEAN_MOTION_DDOT":0},{"OBJECT_NAME":"ICEYE-X71","OBJECT_ID":"2026-067CG","EPOCH":"2026-07-12T10:00:33.297984","CLASSIFICATION_TYPE":"U","MEAN_MOTION":14.91784922,"ECCENTRICITY":0.000126,"INCLINATION":97.7624,"RA_OF_ASC_NODE":151.2666,"ARG_OF_PERICENTER":358.1844,"MEAN_ANOMALY":1.937,"EPHEMERIS_TYPE":0,"NORAD_CAT_ID":68494,"ELEMENT_SET_NO":999,"REV_AT_EPOCH":1548,"BSTAR":0.00014484,"MEAN_MOTION_DOT":0.00001404,"MEAN_MOTION_DDOT":0},{"OBJECT_NAME":"ICEYE-X73","OBJECT_ID":"2026-067CJ","EPOCH":"2026-07-12T10:41:55.660704","CLASSIFICATION_TYPE":"U","MEAN_MOTION":14.92341538,"ECCENTRICITY":0.0001291,"INCLINATION":97.7621,"RA_OF_ASC_NODE":151.3786,"ARG_OF_PERICENTER":153.447,"MEAN_ANOMALY":206.6815,"EPHEMERIS_TYPE":0,"NORAD_CAT_ID":68496,"ELEMENT_SET_NO":999,"REV_AT_EPOCH":1549,"BSTAR":0.00014189,"MEAN_MOTION_DOT":0.00001395,"MEAN_MOTION_DDOT":0},{"OBJECT_NAME":"ICEYE-X75","OBJECT_ID":"2026-067CK","EPOCH":"2026-07-12T10:47:55.419072","CLASSIFICATION_TYPE":"U","MEAN_MOTION":14.92170819,"ECCENTRICITY":0.0001181,"INCLINATION":97.7604,"RA_OF_ASC_NODE":151.351,"ARG_OF_PERICENTER":149.0098,"MEAN_ANOMALY":211.1191,"EPHEMERIS_TYPE":0,"NORAD_CAT_ID":68497,"ELEMENT_SET_NO":999,"REV_AT_EPOCH":1549,"BSTAR":0.000055708,"MEAN_MOTION_DOT":0.00000511,"MEAN_MOTION_DDOT":0},{"OBJECT_NAME":"ICEYE-X74","OBJECT_ID":"2026-067CN","EPOCH":"2026-07-12T09:59:18.580128","CLASSIFICATION_TYPE":"U","MEAN_MOTION":14.91785058,"ECCENTRICITY":0.0001055,"INCLINATION":97.7632,"RA_OF_ASC_NODE":151.2756,"ARG_OF_PERICENTER":356.8775,"MEAN_ANOMALY":3.2437,"EPHEMERIS_TYPE":0,"NORAD_CAT_ID":68500,"ELEMENT_SET_NO":999,"REV_AT_EPOCH":1548,"BSTAR":0.00014129,"MEAN_MOTION_DOT":0.00001369,"MEAN_MOTION_DDOT":0},{"OBJECT_NAME":"ICEYE-X76","OBJECT_ID":"2026-067CQ","EPOCH":"2026-07-12T09:53:17.035872","CLASSIFICATION_TYPE":"U","MEAN_MOTION":14.91747229,"ECCENTRICITY":0.0000755,"INCLINATION":97.764,"RA_OF_ASC_NODE":151.2896,"ARG_OF_PERICENTER":338.7119,"MEAN_ANOMALY":21.4068,"EPHEMERIS_TYPE":0,"NORAD_CAT_ID":68502,"ELEMENT_SET_NO":999,"REV_AT_EPOCH":1548,"BSTAR":0.000054604,"MEAN_MOTION_DOT":0.00000494,"MEAN_MOTION_DDOT":0}]}
