ICEYE-X53               
1 64584U 25135BJ  26193.55839325  .00000087  00000+0  11519-4 0  9999
2 64584  97.7364 310.2297 0001828 168.7521 191.3744 15.00882215 57887
ICEYE-X65               
1 66300U 25248H   26193.52326854  .00001792  00000+0  13090-3 0  9996
2 66300  45.4057   0.9505 0005288 185.0271 175.0558 15.07918224 39347
ICEYE-X66               
1 66301U 25248J   26193.52317795  .00001941  00000+0  13591-3 0  9993
2 66301  45.4024   0.0600 0004886 181.1649 178.9223 15.09166148 39330
ICEYE-X67               
1 66302U 25248K   26193.48163580  .00001870  00000+0  13157-3 0  9999
2 66302  45.4063 359.8563 0006449 180.6538 179.4337 15.09148785 39345
ICEYE-X58               
1 66751U 25276CP  26192.71830430  .00001473  00000+0  77252-4 0  9994
2 66751  97.4198 265.6682 0001934 232.1195 127.9863 15.17296564 34133
ICEYE-X59               
1 66752U 25276CQ  26192.74534672  .00002884  00000+0  23200-3 0  9997
2 66752  97.4383 262.9933 0000713 139.5292 220.5986 15.00733485 33956
ICEYE-X60               
1 66753U 25276CR  26192.75609706  .00003303  00000+0  19978-3 0  9994
2 66753  97.4167 264.6966 0000875 341.2583  18.8615 15.11317713 34071
ICEYE-X61               
1 66754U 25276CS  26193.26660007  .00001784  00000+0  89505-4 0  9998
2 66754  97.4197 266.2891 0001866 228.5716 131.5358 15.18598916 34223
ICEYE-X62               
1 66755U 25276CT  26193.11104556  .00000976  00000+0  63635-4 0  9993
2 66755  97.4193 264.5387 0000701 284.7634  75.3518 15.10124549 34098
ICEYE-X63               
1 67372U 26004K   26193.49511168  .00000497  00000+0  59556-4 0  9996
2 67372  97.8013 191.7399 0005547  58.2689 301.9068 14.88345873 27066
ICEYE-X64               
1 67373U 26004L   26193.47591907  .00000687  00000+0  80804-4 0  9995
2 67373  97.8026 191.6413 0007376  61.3720 298.8238 14.87983247 27054
ICEYE-X71               
1 68494U 26067CG  26193.41705206  .00001404  00000+0  14484-3 0  9990
2 68494  97.7624 151.2666 0001260 358.1844   1.9370 14.91784922 15482
ICEYE-X73               
1 68496U 26067CJ  26193.44578311  .00001395  00000+0  14189-3 0  9991
2 68496  97.7621 151.3786 0001291 153.4470 206.6815 14.92341538 15492
ICEYE-X75               
1 68497U 26067CK  26193.44994698  .00000511  00000+0  55708-4 0  9994
2 68497  97.7604 151.3510 0001181 149.0098 211.1191 14.92170819 15494
ICEYE-X74               
1 68500U 26067CN  26193.41618727  .00001369  00000+0  14129-3 0  9995
2 68500  97.7632 151.2756 0001055 356.8775   3.2437 14.91785058 15489
ICEYE-X76               
1 68502U 26067CQ  26193.41200273  .00000494  00000+0  54604-4 0  9991
2 68502  97.7640 151.2896 0000755 338.7119  21.4068 14.91747229 15482
